{
    "links": {
        "self": "http://www.neowsapp.com/rest/v1/neo/3892699?api_key=iIulBulltgU6a56xZRHN4H3l9WmuAYTsLGpBGhQ2"
    },
    "id": "3892699",
    "neo_reference_id": "3892699",
    "name": "(2019 VQ3)",
    "designation": "2019 VQ3",
    "nasa_jpl_url": "http://ssd.jpl.nasa.gov/sbdb.cgi?sstr=3892699",
    "absolute_magnitude_h": 27.2,
    "estimated_diameter": {
        "kilometers": {
            "estimated_diameter_min": 0.0096506147,
            "estimated_diameter_max": 0.0215794305
        },
        "meters": {
            "estimated_diameter_min": 9.6506146958,
            "estimated_diameter_max": 21.5794304844
        },
        "miles": {
            "estimated_diameter_min": 0.0059966121,
            "estimated_diameter_max": 0.0134088323
        },
        "feet": {
            "estimated_diameter_min": 31.6621227185,
            "estimated_diameter_max": 70.7986587106
        }
    },
    "is_potentially_hazardous_asteroid": false,
    "close_approach_data": [
        {
            "close_approach_date": "1910-11-26",
            "close_approach_date_full": "1910-Nov-26 23:27",
            "epoch_date_close_approach": -1864945980000,
            "relative_velocity": {
                "kilometers_per_second": "5.5437109635",
                "kilometers_per_hour": "19957.3594686742",
                "miles_per_hour": "12400.7270542992"
            },
            "miss_distance": {
                "astronomical": "1.8711423812",
                "lunar": "727.8743862868",
                "kilometers": "279918914.694248044",
                "miles": "173933548.1852052472"
            },
            "orbiting_body": "Juptr"
        },
        {
            "close_approach_date": "1923-06-24",
            "close_approach_date_full": "1923-Jun-24 19:59",
            "epoch_date_close_approach": -1468123260000,
            "relative_velocity": {
                "kilometers_per_second": "4.2786379429",
                "kilometers_per_hour": "15403.0965945477",
                "miles_per_hour": "9570.8852145399"
            },
            "miss_distance": {
                "astronomical": "1.3368030864",
                "lunar": "520.0164006096",
                "kilometers": "199982894.334865968",
                "miles": "124263608.3595996384"
            },
            "orbiting_body": "Juptr"
        },
        {
            "close_approach_date": "2017-11-03",
            "close_approach_date_full": "2017-Nov-03 16:44",
            "epoch_date_close_approach": 1509727440000,
            "relative_velocity": {
                "kilometers_per_second": "4.8089010955",
                "kilometers_per_hour": "17312.0439438542",
                "miles_per_hour": "10757.0308605576"
            },
            "miss_distance": {
                "astronomical": "1.6301852918",
                "lunar": "634.1420785102",
                "kilometers": "243872247.358608466",
                "miles": "151535187.7286141908"
            },
            "orbiting_body": "Juptr"
        },
        {
            "close_approach_date": "2019-11-05",
            "close_approach_date_full": "2019-Nov-05 03:56",
            "epoch_date_close_approach": 1572926160000,
            "relative_velocity": {
                "kilometers_per_second": "8.6980137079",
                "kilometers_per_hour": "31312.8493484608",
                "miles_per_hour": "19456.5868632144"
            },
            "miss_distance": {
                "astronomical": "0.031450821",
                "lunar": "12.234369369",
                "kilometers": "4704975.83135127",
                "miles": "2923536.415416726"
            },
            "orbiting_body": "Earth"
        }
    ],
    "orbital_data": {
        "orbit_id": "1",
        "orbit_determination_date": "2019-11-06 15:42:09",
        "first_observation_date": "2019-11-05",
        "last_observation_date": "2019-11-06",
        "data_arc_in_days": 1,
        "observations_used": 20,
        "orbit_uncertainty": "7",
        "minimum_orbit_intersection": ".0317969",
        "jupiter_tisserand_invariant": "3.098",
        "epoch_osculation": "2459000.5",
        "eccentricity": ".6101707576938341",
        "semi_major_axis": "2.623488981549541",
        "inclination": "7.978153975627231",
        "ascending_node_longitude": "41.16685855953492",
        "orbital_period": "1552.091404074748",
        "perihelion_distance": "1.022712721876032",
        "perihelion_argument": "2.628995647783777",
        "aphelion_distance": "4.224265241223049",
        "perihelion_time": "2458794.100973239622",
        "mean_anomaly": "47.87324344343692",
        "mean_motion": ".2319451026240349",
        "equinox": "J2000",
        "orbit_class": {
            "orbit_class_type": "AMO",
            "orbit_class_description": "Near-Earth asteroid orbits similar to that of 1221 Amor",
            "orbit_class_range": "1.017 AU < q (perihelion) < 1.3 AU"
        }
    },
    "is_sentry_object": false
}